{
  "type": "FeatureCollection",
  "features": [
    {
      "type": "Feature",
      "properties": {
        "norad_id": 42917,
        "name": "QZS-3 (QZSS/PRN 199)",
        "group": "gnss",
        "lat": 0.044531351973307105,
        "lon": -67.16014509621762,
        "alt_km": 35777.72182075383,
        "timestamp": "2025-12-10T05:46:14.064834+00:00",
        "meta_object_name": "QZS-3 (QZSS/PRN 199)",
        "meta_object_id": "2017-048A",
        "meta_epoch": "2025-12-09T16:52:38.709120",
        "meta_mean_motion": 1.00273278,
        "meta_eccentricity": 0.000214,
        "meta_inclination": 0.0634,
        "meta_ra_of_asc_node": 204.2437,
        "meta_arg_of_pericenter": 60.8643,
        "meta_mean_anomaly": 193.794,
        "meta_ephemeris_type": 0,
        "meta_classification_type": "U",
        "meta_norad_cat_id": 42917,
        "meta_element_set_no": 999,
        "meta_rev_at_epoch": 3035,
        "meta_bstar": 0,
        "meta_mean_motion_dot": -3.45e-06,
        "meta_mean_motion_ddot": 0,
        "tle_line1": "1 42917U 17048A   25343.70322580 -.00000345  00000+0  00000+0 0  9998",
        "tle_line2": "2 42917   0.0634 204.2437 0002140  60.8643 193.7940  1.00273278 30358"
      },
      "geometry": {
        "type": "Point",
        "coordinates": [
          -67.16014509621762,
          0.044531351973307105
        ]
      }
    },
    {
      "type": "Feature",
      "properties": {
        "norad_id": 42939,
        "name": "COSMOS 2522 (752)",
        "group": "gnss",
        "lat": 4.051151996473491,
        "lon": 16.34369345533827,
        "alt_km": 19119.249779511127,
        "timestamp": "2025-12-10T05:46:14.064856+00:00",
        "meta_object_name": "COSMOS 2522 (752)",
        "meta_object_id": "2017-055A",
        "meta_epoch": "2025-12-08T03:13:49.063296",
        "meta_mean_motion": 2.13101881,
        "meta_eccentricity": 0.00064484,
        "meta_inclination": 64.0758,
        "meta_ra_of_asc_node": 198.386,
        "meta_arg_of_pericenter": 225.1717,
        "meta_mean_anomaly": 134.8539,
        "meta_ephemeris_type": 0,
        "meta_classification_type": "U",
        "meta_norad_cat_id": 42939,
        "meta_element_set_no": 999,
        "meta_rev_at_epoch": 6390,
        "meta_bstar": 0,
        "meta_mean_motion_dot": 5.1e-07,
        "meta_mean_motion_ddot": 0,
        "tle_line1": "1 42939U 17055A   25342.13459564  .00000051  00000+0  00000+0 0  9992",
        "tle_line2": "2 42939  64.0758 198.3860 0006448 225.1717 134.8539  2.13101881 63907"
      },
      "geometry": {
        "type": "Point",
        "coordinates": [
          16.34369345533827,
          4.051151996473491
        ]
      }
    },
    {
      "type": "Feature",
      "properties": {
        "norad_id": 42965,
        "name": "QZS-4 (QZSS/PRN 195)",
        "group": "gnss",
        "lat": -22.84898026642575,
        "lon": -44.00190593143253,
        "alt_km": 33672.43082957068,
        "timestamp": "2025-12-10T05:46:14.064875+00:00",
        "meta_object_name": "QZS-4 (QZSS/PRN 195)",
        "meta_object_id": "2017-062A",
        "meta_epoch": "2025-12-09T13:25:49.268064",
        "meta_mean_motion": 1.00253406,
        "meta_eccentricity": 0.0752235,
        "meta_inclination": 40.2274,
        "meta_ra_of_asc_node": 345.9105,
        "meta_arg_of_pericenter": 271.4771,
        "meta_mean_anomaly": 159.2733,
        "meta_ephemeris_type": 0,
        "meta_classification_type": "U",
        "meta_norad_cat_id": 42965,
        "meta_element_set_no": 999,
        "meta_rev_at_epoch": 2990,
        "meta_bstar": 0,
        "meta_mean_motion_dot": -3.56e-06,
        "meta_mean_motion_ddot": 0,
        "tle_line1": "1 42965U 17062A   25343.55959801 -.00000356  00000+0  00000+0 0  9994",
        "tle_line2": "2 42965  40.2274 345.9105 0752235 271.4771 159.2733  1.00253406 29908"
      },
      "geometry": {
        "type": "Point",
        "coordinates": [
          -44.00190593143253,
          -22.84898026642575
        ]
      }
    },
    {
      "type": "Feature",
      "properties": {
        "norad_id": 43001,
        "name": "BEIDOU-3 M1 (C19)",
        "group": "gnss",
        "lat": 54.55032472399813,
        "lon": 137.46349133319623,
        "alt_km": 21539.101768550856,
        "timestamp": "2025-12-10T05:46:14.064896+00:00",
        "meta_object_name": "BEIDOU-3 M1 (C19)",
        "meta_object_id": "2017-069A",
        "meta_epoch": "2025-12-09T14:06:31.411584",
        "meta_mean_motion": 1.8623096,
        "meta_eccentricity": 0.0009028,
        "meta_inclination": 56.5248,
        "meta_ra_of_asc_node": 69.3379,
        "meta_arg_of_pericenter": 303.8833,
        "meta_mean_anomaly": 56.0533,
        "meta_ephemeris_type": 0,
        "meta_classification_type": "U",
        "meta_norad_cat_id": 43001,
        "meta_element_set_no": 999,
        "meta_rev_at_epoch": 5507,
        "meta_bstar": 0,
        "meta_mean_motion_dot": -4.9e-07,
        "meta_mean_motion_ddot": 0,
        "tle_line1": "1 43001U 17069A   25343.58786356 -.00000049  00000+0  00000+0 0  9998",
        "tle_line2": "2 43001  56.5248  69.3379 0009028 303.8833  56.0533  1.86230960 55078"
      },
      "geometry": {
        "type": "Point",
        "coordinates": [
          137.46349133319623,
          54.55032472399813
        ]
      }
    },
    {
      "type": "Feature",
      "properties": {
        "norad_id": 43002,
        "name": "BEIDOU-3 M2 (C20)",
        "group": "gnss",
        "lat": 46.927639651923414,
        "lon": -155.61528414370093,
        "alt_km": 21537.024005193736,
        "timestamp": "2025-12-10T05:46:14.064914+00:00",
        "meta_object_name": "BEIDOU-3 M2 (C20)",
        "meta_object_id": "2017-069B",
        "meta_epoch": "2025-12-09T12:37:45.819264",
        "meta_mean_motion": 1.8623055,
        "meta_eccentricity": 0.0006254,
        "meta_inclination": 56.5238,
        "meta_ra_of_asc_node": 69.3764,
        "meta_arg_of_pericenter": 332.6094,
        "meta_mean_anomaly": 27.38,
        "meta_ephemeris_type": 0,
        "meta_classification_type": "U",
        "meta_norad_cat_id": 43002,
        "meta_element_set_no": 999,
        "meta_rev_at_epoch": 5506,
        "meta_bstar": 0,
        "meta_mean_motion_dot": -4.8e-07,
        "meta_mean_motion_ddot": 0,
        "tle_line1": "1 43002U 17069B   25343.52622476 -.00000048  00000+0  00000+0 0  9994",
        "tle_line2": "2 43002  56.5238  69.3764 0006254 332.6094  27.3800  1.86230550 55065"
      },
      "geometry": {
        "type": "Point",
        "coordinates": [
          -155.61528414370093,
          46.927639651923414
        ]
      }
    },
    {
      "type": "Feature",
      "properties": {
        "norad_id": 43055,
        "name": "GSAT0215 (GALILEO 19)",
        "group": "gnss",
        "lat": 47.46238803822509,
        "lon": -83.88483112021895,
        "alt_km": 23215.88763066395,
        "timestamp": "2025-12-10T05:46:14.064931+00:00",
        "meta_object_name": "GSAT0215 (GALILEO 19)",
        "meta_object_id": "2017-079A",
        "meta_epoch": "2025-12-08T23:07:01.020000",
        "meta_mean_motion": 1.70473827,
        "meta_eccentricity": 0.0001283,
        "meta_inclination": 55.1313,
        "meta_ra_of_asc_node": 226.7419,
        "meta_arg_of_pericenter": 343.8788,
        "meta_mean_anomaly": 16.2047,
        "meta_ephemeris_type": 0,
        "meta_classification_type": "U",
        "meta_norad_cat_id": 43055,
        "meta_element_set_no": 999,
        "meta_rev_at_epoch": 4974,
        "meta_bstar": 0,
        "meta_mean_motion_dot": 1.3e-07,
        "meta_mean_motion_ddot": 0,
        "tle_line1": "1 43055U 17079A   25342.96320625  .00000013  00000+0  00000+0 0  9992",
        "tle_line2": "2 43055  55.1313 226.7419 0001283 343.8788  16.2047  1.70473827 49746"
      },
      "geometry": {
        "type": "Point",
        "coordinates": [
          -83.88483112021895,
          47.46238803822509
        ]
      }
    },
    {
      "type": "Feature",
      "properties": {
        "norad_id": 43056,
        "name": "GSAT0216 (GALILEO 20)",
        "group": "gnss",
        "lat": -48.091965443307544,
        "lon": 97.63000239339235,
        "alt_km": 23225.494754333053,
        "timestamp": "2025-12-10T05:46:14.064948+00:00",
        "meta_object_name": "GSAT0216 (GALILEO 20)",
        "meta_object_id": "2017-079B",
        "meta_epoch": "2025-12-08T01:57:06.766848",
        "meta_mean_motion": 1.70473892,
        "meta_eccentricity": 0.00025149,
        "meta_inclination": 55.132,
        "meta_ra_of_asc_node": 226.7661,
        "meta_arg_of_pericenter": 318.3772,
        "meta_mean_anomaly": 41.6956,
        "meta_ephemeris_type": 0,
        "meta_classification_type": "U",
        "meta_norad_cat_id": 43056,
        "meta_element_set_no": 999,
        "meta_rev_at_epoch": 4974,
        "meta_bstar": 0,
        "meta_mean_motion_dot": 1.9e-07,
        "meta_mean_motion_ddot": 0,
        "tle_line1": "1 43056U 17079B   25342.08132832  .00000019  00000+0  00000+0 0  9993",
        "tle_line2": "2 43056  55.1320 226.7661 0002514 318.3772  41.6956  1.70473892 49745"
      },
      "geometry": {
        "type": "Point",
        "coordinates": [
          97.63000239339235,
          -48.091965443307544
        ]
      }
    }
  ]
}